STARLINK-31235          
1 59038U 24038R   26068.91695407 -.00002892  00000+0 -95598-4 0  9997
2 59038  43.0064  22.2255 0001485 278.0699  81.9984 15.27580795114836
LYNK TOWER 6            
1 59123U 24043AB  26068.89488777  .00011440  00000+0  40142-3 0  9996
2 59123  97.5426 204.1954 0009749 232.0253 128.0107 15.29548678111845
